IRIDIUM 106             
1 41917U 17003A   25151.81053620  .00000061  00000+0  14656-4 0  9994
2 41917  86.3978 247.8440 0002748  90.0545 270.0965 14.34217893438543
IRIDIUM 103             
1 41918U 17003B   25151.79785026  .00000008  00000+0 -41504-5 0  9999
2 41918  86.3977 247.7503 0002469 107.9801 252.1664 14.34217812438565
IRIDIUM 109             
1 41919U 17003C   25151.80419026 -.00000001  00000+0 -74192-5 0  9999
2 41919  86.3979 247.8008 0002053 100.2097 259.9331 14.34216654438537
IRIDIUM 102             
1 41920U 17003D   25152.53993420  .00000640  00000+0  22144-3 0  9992
2 41920  86.3977 247.4249 0002149  94.2788 265.8653 14.34223512438720
IRIDIUM 105             
1 41921U 17003E   25151.67343757  .00000240  00000+0  78637-4 0  9994
2 41921  86.4005 216.2480 0002408  99.6664 260.4804 14.34215607440453
IRIDIUM 104             
1 41922U 17003F   25152.55261835 -.00000023  00000+0 -15455-4 0  9999
2 41922  86.3977 247.4566 0002077 107.2565 252.8858 14.34217007438716
IRIDIUM 114             
1 41923U 17003G   25151.79150802  .00000240  00000+0  78759-4 0  9991
2 41923  86.3979 247.7590 0002487 102.1646 257.9829 14.34216994438581
IRIDIUM 108             
1 41924U 17003H   25151.68026035 -.00000021  00000+0 -14519-4 0  9993
2 41924  86.4002 216.1475 0002308  89.9180 270.2280 14.34217559440422
